NORAD_CAT_ID,OBJECT_NAME,OBJECT_TYPE,EPOCH,MEAN_MOTION,ECCENTRICITY,INCLINATION,RA_OF_ASC_NODE,ARG_OF_PERICENTER,MEAN_ANOMALY,BSTAR,MEAN_MOTION_DOT,MEAN_MOTION_DDOT,TLE_LINE0,TLE_LINE1,TLE_LINE2,SEMIMAJOR_AXIS,PERIOD,APOGEE,PERIGEE,DECAYED
55791.0,STARLINK-5807,PAYLOAD,2023-07-14 06:44:33,15.69925789,0.0003073,69.998,142.5961,267.8242,92.2602,3.0599e-06,1.55e-06,0.0,0 STARLINK-5807,1 55791U 23028BC  23195.28093998  .00000155  00000-0  30599-5 0  9992,2 55791  69.9980 142.5961 0003073 267.8242  92.2602 15.69925789 21467,6737.246,91.724,361.182,357.041,0.0
55791.0,STARLINK-5807,PAYLOAD,2023-07-15 02:37:20,15.69911744,0.0003481,69.9978,140.2681,264.8476,95.2322,-8.7862e-06,-1.269e-05,0.0,0 STARLINK-5807,1 55791U 23028BC  23196.10926665 -.00001269  00000-0 -87862-5 0  9994,2 55791  69.9978 140.2681 0003481 264.8476  95.2322 15.69911744 21599,6737.286,91.725,361.497,356.806,0.0
55791.0,STARLINK-5807,PAYLOAD,2023-07-15 19:26:36,15.69920781,0.0002861,69.9981,138.2963,257.4947,102.5928,-6.0616e-06,-9.41e-06,0.0,0 STARLINK-5807,1 55791U 23028BC  23196.81014764 -.00000941  00000-0 -60616-5 0  9994,2 55791  69.9981 138.2963 0002861 257.4947 102.5928 15.69920781 21703,6737.261,91.724,361.053,357.198,0.0
55791.0,STARLINK-5807,PAYLOAD,2023-07-16 13:47:37,15.6993061,0.0003311,69.9965,136.1465,262.8217,97.2602,6.4001e-06,5.57e-06,0.0,0 STARLINK-5807,1 55791U 23028BC  23197.57473920  .00000557  00000-0  64001-5 0  9994,2 55791  69.9965 136.1465 0003311 262.8217  97.2602 15.69930610 21824,6737.233,91.724,361.328,356.867,0.0
55791.0,STARLINK-5807,PAYLOAD,2023-07-17 23:26:10,15.69922049,0.0002868,70.0,132.2074,257.1471,102.9405,1.3507e-05,1.412e-05,0.0,0 STARLINK-5807,1 55791U 23028BC  23198.97650880  .00001412  00000-0  13507-4 0  9996,2 55791  70.0000 132.2074 0002868 257.1471 102.9405 15.69922049 22042,6737.257,91.724,361.054,357.19,0.0
55791.0,STARLINK-5807,PAYLOAD,2023-07-18 05:33:11,15.69913583,0.0002931,69.9985,131.4887,269.931,90.155,-3.4783e-06,-6.3e-06,0.0,0 STARLINK-5807,1 55791U 23028BC  23199.23138694 -.00000630  00000-0 -34783-5 0  9993,2 55791  69.9985 131.4887 0002931 269.9310  90.1550 15.69913583 22084,6737.281,91.725,361.121,357.172,0.0
55791.0,STARLINK-5807,PAYLOAD,2023-07-19 06:01:13,15.69920988,0.0003203,69.9981,128.6222,267.7812,92.3017,1.128e-06,-7.7e-07,0.0,0 STARLINK-5807,1 55791U 23028BC  23200.25085055 -.00000077  00000-0  11280-5 0  9991,2 55791  69.9981 128.6222 0003203 267.7812  92.3017 15.69920988 22244,6737.26,91.724,361.283,356.967,0.0
55791.0,STARLINK-5807,PAYLOAD,2023-07-19 18:15:29,15.69754401,0.0001941,69.9989,127.1912,275.4251,84.6723,-0.00016843,-0.00020269,0.0,0 STARLINK-5807,1 55791U 23028BC  23200.76076329 -.00020269  00000-0 -16843-3 0  9995,2 55791  69.9989 127.1912 0001941 275.4251  84.6723 15.69754401 22324,6737.737,91.734,360.909,358.294,0.0
55791.0,STARLINK-5807,PAYLOAD,2023-07-20 04:57:32,15.69877553,0.0003241,69.9983,125.9369,268.0349,92.0476,-2.3435e-05,-3.024e-05,0.0,0 STARLINK-5807,1 55791U 23028BC  23201.20663054 -.00003024  00000-0 -23435-4 0  9998,2 55791  69.9983 125.9369 0003241 268.0349  92.0476 15.69877553 22390,6737.384,91.727,361.433,357.066,0.0
55791.0,STARLINK-5807,PAYLOAD,2023-07-21 05:25:31,15.69930695,0.000346,69.9984,123.0714,265.3548,94.7253,1.1112e-05,1.124e-05,0.0,0 STARLINK-5807,1 55791U 23028BC  23202.22606123  .00001124  00000-0  11112-4 0  9991,2 55791  69.9984 123.0714 0003460 265.3548  94.7253 15.69930695 22555,6737.232,91.724,361.428,356.766,0.0
55791.0,STARLINK-5807,PAYLOAD,2023-07-21 19:11:21,15.69877283,0.0003203,69.9982,121.4589,255.7911,104.2929,-5.1517e-05,-6.39e-05,0.0,0 STARLINK-5807,1 55791U 23028BC  23202.79955516 -.00006390  00000-0 -51517-4 0  9991,2 55791  69.9982 121.4589 0003203 255.7911 104.2929 15.69877283 22647,6737.385,91.727,361.408,357.092,0.0
55791.0,STARLINK-5807,PAYLOAD,2023-07-24 03:46:07,15.69919471,0.0003845,69.9977,114.8284,269.839,90.2365,9.8359e-06,9.7e-06,0.0,0 STARLINK-5807,1 55791U 23028BC  23205.15703577  .00000970  00000-0  98359-5 0  9994,2 55791  69.9977 114.8284 0003845 269.8390  90.2365 15.69919471 23025,6737.264,91.724,361.72,356.539,0.0
55791.0,STARLINK-5807,PAYLOAD,2023-07-24 17:31:54,15.69919716,0.0003187,70.0003,113.2214,259.1826,100.9011,-1.8286e-06,-4.32e-06,0.0,0 STARLINK-5807,1 55791U 23028BC  23205.73049099 -.00000432  00000-0 -18286-5 0  9996,2 55791  70.0003 113.2214 0003187 259.1826 100.9011 15.69919716 23118,6737.264,91.724,361.276,356.982,0.0
55791.0,STARLINK-5807,PAYLOAD,2023-07-26 03:10:26,15.69899297,0.0003606,69.998,109.2771,257.2724,102.8069,5.2783e-05,6.132e-05,0.0,0 STARLINK-5807,1 55791U 23028BC  23207.13225519  .00006132  00000-0  52783-4 0  9995,2 55791  69.9980 109.2771 0003606 257.2724 102.8069 15.69899297 23333,6737.322,91.726,361.617,356.758,0.0
55791.0,STARLINK-5807,PAYLOAD,2023-07-26 16:56:12,15.6992938,0.0003908,69.9975,107.6644,260.5156,99.5598,1.2928e-05,1.342e-05,0.0,0 STARLINK-5807,1 55791U 23028BC  23207.70569949  .00001342  00000-0  12928-4 0  9991,2 55791  69.9975 107.6644 0003908 260.5156  99.5598 15.69929380 23414,6737.236,91.724,361.734,356.468,0.0
55791.0,STARLINK-5807,PAYLOAD,2023-07-28 02:34:45,15.69920676,0.0003907,69.9963,103.7215,271.2308,88.844,1.8322e-06,7e-08,0.0,0 STARLINK-5807,1 55791U 23028BC  23209.10747479  .00000007  00000-0  18322-5 0  9995,2 55791  69.9963 103.7215 0003907 271.2308  88.8440 15.69920676 23639,6737.261,91.724,361.758,356.494,0.0
55791.0,STARLINK-5807,PAYLOAD,2023-07-29 01:31:02,15.69926181,0.0003087,69.9986,101.0346,264.2776,95.8068,1.2493e-05,1.29e-05,0.0,0 STARLINK-5807,1 55791U 23028BC  23210.06322015  .00001290  00000-0  12493-4 0  9994,2 55791  69.9986 101.0346 0003087 264.2776  95.8068 15.69926181 23787,6737.245,91.724,361.19,357.03,0.0
55791.0,STARLINK-5807,PAYLOAD,2023-07-29 18:20:19,15.69850126,0.0002678,69.9968,99.0634,268.0336,92.0552,0.00011174,0.00013202,0.0,0 STARLINK-5807,1 55791U 23028BC  23210.76411169  .00013202  00000-0  11174-3 0  9990,2 55791  69.9968  99.0634 0002678 268.0336  92.0552 15.69850126 23896,6737.463,91.729,361.132,357.524,0.0
55791.0,STARLINK-5807,PAYLOAD,2023-07-30 01:59:04,15.69918875,0.0003033,69.9974,98.1683,263.3119,96.7731,9.393e-07,-1e-06,0.0,0 STARLINK-5807,1 55791U 23028BC  23211.08269651 -.00000100  00000-0  93930-6 0  9990,2 55791  69.9974  98.1683 0003033 263.3119  96.7731 15.69918875 23942,6737.266,91.724,361.175,357.088,0.0
55791.0,STARLINK-5807,PAYLOAD,2023-07-30 18:48:20,15.6993835,0.0002571,69.997,96.1969,239.3242,120.7701,1.345e-05,1.406e-05,0.0,0 STARLINK-5807,1 55791U 23028BC  23211.78356548  .00001406  00000-0  13450-4 0  9995,2 55791  69.9970  96.1969 0002571 239.3242 120.7701 15.69938350 24057,6737.21,91.723,360.808,357.343,0.0
55791.0,STARLINK-5807,PAYLOAD,2023-07-31 02:27:03,15.69964229,0.0003623,69.9975,95.3018,258.1711,101.9078,4.045e-05,4.662e-05,0.0,0 STARLINK-5807,1 55791U 23028BC  23212.10212092  .00004662  00000-0  40450-4 0  9994,2 55791  69.9975  95.3018 0003623 258.1711 101.9078 15.69964229 24105,6737.136,91.722,361.442,356.56,0.0
55791.0,STARLINK-5807,PAYLOAD,2023-08-01 01:23:24,15.69908754,0.0003635,69.997,92.6149,283.6069,76.4721,-9.7804e-06,-1.388e-05,0.0,0 STARLINK-5807,1 55791U 23028BC  23213.05792017 -.00001388  00000-0 -97804-5 0  9999,2 55791  69.9970  92.6149 0003635 283.6069  76.4721 15.69908754 24255,6737.295,91.725,361.609,356.711,0.0
55791.0,STARLINK-5807,PAYLOAD,2023-08-01 18:12:40,15.69922992,0.000322,69.9974,90.6445,268.6204,91.4623,-2.1781e-05,-2.831e-05,0.0,0 STARLINK-5807,1 55791U 23028BC  23213.75880159 -.00002831  00000-0 -21781-4 0  9995,2 55791  69.9974  90.6445 0003220 268.6204  91.4623 15.69922992 24360,6737.254,91.724,361.289,356.95,0.0
55791.0,STARLINK-5807,PAYLOAD,2023-08-02 01:51:24,15.6993727,0.0004154,69.9957,89.7494,272.3972,87.6748,-1.1148e-06,-3.48e-06,0.0,0 STARLINK-5807,1 55791U 23028BC  23214.07736912 -.00000348  00000-0 -11148-5 0  9996,2 55791  69.9957  89.7494 0004154 272.3972  87.6748 15.69937270 24411,6737.213,91.723,361.877,356.28,0.0
55791.0,STARLINK-5807,PAYLOAD,2023-08-02 18:40:42,15.69912376,0.0003054,69.997,87.7779,269.4041,90.6805,1.4853e-05,1.573e-05,0.0,0 STARLINK-5807,1 55791U 23028BC  23214.77826424  .00001573  00000-0  14853-4 0  9995,2 55791  69.9970  87.7779 0003054 269.4041  90.6805 15.69912376 24522,6737.285,91.725,361.207,357.092,0.0
55791.0,STARLINK-5807,PAYLOAD,2023-08-02 23:15:57,15.6991771,0.0002786,69.9972,87.2413,272.2484,87.8392,2.1186e-05,2.335e-05,0.0,0 STARLINK-5807,1 55791U 23028BC  23214.96941120  .00002335  00000-0  21186-4 0  9991,2 55791  69.9972  87.2413 0002786 272.2484  87.8392 15.69917710 24557,6737.269,91.725,361.011,357.257,0.0
55791.0,STARLINK-5807,PAYLOAD,2023-08-04 01:15:44,15.69916144,0.0003185,69.9966,84.1937,273.2008,86.8823,2.5876e-06,9.8e-07,0.0,0 STARLINK-5807,1 55791U 23028BC  23216.05260341  .00000098  00000-0  25876-5 0  9997,2 55791  69.9966  84.1937 0003185 273.2008  86.8823 15.69916144 24721,6737.274,91.725,361.285,356.993,0.0
55791.0,STARLINK-5807,PAYLOAD,2023-08-05 00:12:01,15.69929477,0.0002717,69.9982,81.5078,263.1714,96.9172,1.1064e-05,1.118e-05,0.0,0 STARLINK-5807,1 55791U 23028BC  23217.00834545  .00001118  00000-0  11064-4 0  9993,2 55791  69.9982  81.5078 0002717 263.1714  96.9172 15.69929477 24876,6737.236,91.724,360.931,357.27,0.0
55791.0,STARLINK-5807,PAYLOAD,2023-08-06 02:11:49,15.69904339,0.0003695,69.9977,78.461,275.8811,84.1964,-2.3695e-05,-3.059e-05,0.0,0 STARLINK-5807,1 55791U 23028BC  23218.09154810 -.00003059  00000-0 -23695-4 0  9994,2 55791  69.9977  78.4610 0003695 275.8811  84.1964 15.69904339 25049,6737.308,91.725,361.662,356.683,0.0
55791.0,STARLINK-5807,PAYLOAD,2023-08-06 08:18:49,15.69906239,0.0004085,69.9963,77.7437,266.8251,93.2478,-4.5825e-06,-7.64e-06,0.0,0 STARLINK-5807,1 55791U 23028BC  23218.34640966 -.00000764  00000-0 -45825-5 0  9994,2 55791  69.9963  77.7437 0004085 266.8251  93.2478 15.69906239 25081,6737.302,91.725,361.919,356.415,0.0
